[{"OBJECT_NAME":"YUNYAO-1 18","OBJECT_ID":"2024-009A","EPOCH":"2026-03-09T23:31:57.952704","MEAN_MOTION":15.20880734,"ECCENTRICITY":0.00048808,"INCLINATION":49.9885,"RA_OF_ASC_NODE":282.3937,"ARG_OF_PERICENTER":244.6654,"MEAN_ANOMALY":115.3794,"EPHEMERIS_TYPE":0,"CLASSIFICATION_TYPE":"U","NORAD_CAT_ID":58758,"ELEMENT_SET_NO":999,"REV_AT_EPOCH":11973,"BSTAR":0.00063747175,"MEAN_MOTION_DOT":0.00014001,"MEAN_MOTION_DDOT":0},{"OBJECT_NAME":"OBJECT AS","OBJECT_ID":"2025-313AS","EPOCH":"2026-03-09T21:37:48.750816","MEAN_MOTION":15.22046455,"ECCENTRICITY":0.00110673,"INCLINATION":97.3991,"RA_OF_ASC_NODE":145.2294,"ARG_OF_PERICENTER":345.8413,"MEAN_ANOMALY":14.2511,"EPHEMERIS_TYPE":0,"CLASSIFICATION_TYPE":"U","NORAD_CAT_ID":67288,"ELEMENT_SET_NO":999,"REV_AT_EPOCH":1085,"BSTAR":0.00031771512,"MEAN_MOTION_DOT":7.207e-5,"MEAN_MOTION_DDOT":0}]
